ES'HAIL 2               
1 43700U 18090A   24189.55507014  .00000141  00000+0  00000+0 0  9997
2 43700   0.0230  75.2978 0001981  75.7473   0.5752  1.00274259 20563
BEIDOU-3 G1 (C59)       
1 43683U 18085A   24189.57772672 -.00000285  00000+0  00000+0 0  9997
2 43683   2.2413 108.8172 0003707   2.4336 162.6724  1.00266835 20944
BEIDOU-3 IGSO-1 (C38)   
1 44204U 19023A   24189.39944929 -.00000215  00000+0  00000+0 0  9999
2 44204  57.6722  45.0097 0022374 206.0827 296.0209  1.00295564    92
BEIDOU-2 G8 (C01)       
1 44231U 19027A   24189.79328411 -.00000251  00000+0  00000+0 0  9999
2 44231   1.5262  73.8633 0001571 195.4899  86.9885  1.00274245 18964
BEIDOU-3 IGSO-2 (C39)   
1 44337U 19035A   24189.61776022 -.00000115  00000+0  00000+0 0  9990
2 44337  55.1825 165.0890 0035316 205.3628 255.5100  1.00291282 18587
AZERSPACE 2 (IS-38)     
1 43632U 18074A   24189.84509961  .00000133  00000+0  00000+0 0  9999
2 43632   0.0183  31.7483 0001175  74.0558 169.8308  1.00272044 21335
HORIZONS-3E             
1 43633U 18074B   24189.79815738 -.00000034  00000+0  00000+0 0  9997
2 43633   0.0574 218.4795 0000956  63.6104 100.4701  1.00271085 21205
AEHF-4 (USA 288)        
1 43651U 18079A   24190.17619146 -.00000276  00000+0  00000+0 0  9999
2 43651   1.6415 334.7249 0046877   9.7271 297.9811  1.00276588 21184
GSAT-29                 
1 43698U 18089A   24189.56090066  .00000081  00000+0  00000+0 0  9999
2 43698   0.0630 262.2263 0002616 177.4223 103.3310  1.00273623 20709
GEO-KOMPSAT-2A          
1 43823U 18100A   24190.16160792 -.00000347  00000+0  00000+0 0  9991
2 43823   0.0374 127.6162 0002057 329.3948  16.0303  1.00271659 20559
GSAT-11                 
1 43824U 18100B   24190.14841274 -.00000079  00000+0  00000+0 0  9993
2 43824   0.0586 255.9106 0007458 196.7115 321.3607  1.00271639 20524
GSAT-7A                 
1 43864U 18105A   24189.76785627  .00000023  00000+0  00000+0 0  9995
2 43864   0.0743 102.7620 0001777 357.5017 165.1568  1.00273760 20335
COSMOS 2533             
1 43867U 18107A   24190.14841274 -.00000042  00000+0  00000+0 0  9997
2 43867   0.0398 110.4682 0001116 350.9768 308.5506  1.00275273 20319
TJS-3                   
1 43874U 18110A   24189.61142703 -.00000003  00000+0  00000+0 0  9997
2 43874   0.7065  88.7503 0002040  84.9022 145.4656  1.00270253 20304
ZHONGXING-2D            
1 43920U 19001A   24189.61192021 -.00000341  00000+0  00000+0 0  9992
2 43920   0.0190 252.3980 0002379  18.5072   5.4511  1.00271265 46968
HELLAS-SAT 4 & SGS-1    
1 44034U 19007A   24189.77236331  .00000149  00000+0  00000+0 0  9990
2 44034   0.0689 122.5948 0005989  22.1245  98.5409  1.00271420 20237
GSAT-31                 
1 44035U 19007B   24189.55942128  .00000122  00000+0  00000+0 0  9996
2 44035   0.0782 265.4295 0001085 349.9934 279.8436  1.00271303 19841
NUSANTARA SATU          
1 44048U 19009A   24189.58178096 -.00000238  00000+0  00000+0 0  9999
2 44048   0.0342 114.2223 0004733  12.1210 155.1107  1.00272279 19640
ZHONGXING-6C            
1 44067U 19012A   24189.89560726 -.00000338  00000+0  00000+0 0  9994
2 44067   0.0494 100.2027 0005205 304.6589 334.2986  1.00273603 19624
WGS 10 (USA 291)        
1 44071U 19014A   24190.13431635  .00000043  00000+0  00000+0 0  9998
2 44071   0.0174  47.3962 0000230 198.5635 149.2757  1.00273621 19505
TIANLIAN 2-01           
1 44076U 19017A   24190.14841274 -.00000110  00000+0  00000+0 0  9997
2 44076   0.0649 253.4277 0002200 177.2049 346.4531  1.00271621 19507
ARABSAT-6A              
1 44186U 19021A   24189.34103723  .00000150  00000+0  00000+0 0  9997
2 44186   0.0448 359.4664 0002778 168.6735 270.9102  1.00277179 19047
YAMAL 601               
1 44307U 19031A   24190.13205376  .00000117  00000+0  00000+0 0  9992
2 44307   0.0158  67.3478 0002300  34.4326 281.3127  1.00271422 18806
AT&T T-16               
1 44333U 19034A   24190.17383850 -.00000118  00000+0  00000+0 0  9994
2 44333   0.0146 326.9465 0000824 324.7637 316.6212  1.00268648 18523
EUTELSAT 7C             
1 44334U 19034B   24184.54217117  .00000050  00000+0  00000+0 0  9995
2 44334   0.0775 187.7983 0003092 258.6230  36.8118  1.00270770 18956
COSMOS 2539             
1 44457U 19048A   24189.76696791  .00000078  00000+0  00000+0 0  9994
2 44457   0.0362 101.9869 0000938  12.8999  99.4026  1.00273660 18104
EDRS-C                  
1 44475U 19049A   24189.12010547  .00000151  00000+0  00000+0 0  9996
2 44475   0.0668 241.9394 0000641 213.7535 264.2959  1.00273042 18099
INTELSAT 39 (IS-39)     
1 44476U 19049B   24189.76785627  .00000030  00000+0  00000+0 0  9991
2 44476   0.0211  34.6680 0001050 308.3988 281.5214  1.00269446 18018
AMOS-17                 
1 44479U 19050A   24189.76792515  .00000106  00000+0  00000+0 0  9994
2 44479   0.0140  52.6498 0001382  64.2069 102.7858  1.00270770 18060
AEHF-5 (USA 292)        
1 44481U 19051A   24189.84692708  .00000082  00000+0  00000+0 0  9993
2 44481   2.6701 308.1294 0044008   2.2500 335.4355  1.00277300 18143
EUTELSAT 5 WEST B       
1 44624U 19067A   24190.12134998 -.00000045  00000+0  00000+0 0  9994
2 44624   0.0671 336.2295 0002827 131.3468 217.6577  1.00272019 17332
MEV-1                   
1 44625U 19067B   24188.68573926 -.00000206  00000+0  00000+0 0  9990
2 44625   0.0162 340.3349 0000556 108.6165  55.5608  1.00271614 15862
