OBJECT_NAME,OBJECT_ID,EPOCH,MEAN_MOTION,ECCENTRICITY,INCLINATION,RA_OF_ASC_NODE,ARG_OF_PERICENTER,MEAN_ANOMALY,EPHEMERIS_TYPE,CLASSIFICATION_TYPE,NORAD_CAT_ID,ELEMENT_SET_NO,REV_AT_EPOCH,BSTAR,MEAN_MOTION_DOT,MEAN_MOTION_DDOT
AZERSPACE 2 (IS-38),2018-074A,2024-07-07T20:16:56.606304,1.00272044,.0001175,0.0183,31.7483,74.0558,169.8308,0,U,43632,999,2133,0,.133E-5,0
HORIZONS-3E,2018-074B,2024-07-07T19:09:20.797632,1.00271085,.0000956,0.0574,218.4795,63.6104,100.4701,0,U,43633,999,2120,0,-.34E-6,0
AEHF-4 (USA 288),2018-079A,2024-07-08T04:13:42.942144,1.00276588,.0046877,1.6415,334.7249,9.7271,297.9811,0,U,43651,999,2118,0,-.276E-5,0
BEIDOU-3 G1,2018-085A,2024-07-07T13:51:55.588608,1.00266835,.0003707,2.2413,108.8172,2.4336,162.6724,0,U,43683,999,2094,0,-.285E-5,0
GSAT-29,2018-089A,2024-07-07T13:27:41.817024,1.00273623,.0002616,0.0630,262.2263,177.4223,103.3310,0,U,43698,999,2070,0,.81E-6,0
ES'HAIL 2,2018-090A,2024-07-07T13:19:18.060096,1.00274259,.0001981,0.0230,75.2978,75.7473,0.5752,0,U,43700,999,2056,0,.141E-5,0
GEO-KOMPSAT-2A,2018-100A,2024-07-08T03:52:42.924288,1.00271659,.0002057,0.0374,127.6162,329.3948,16.0303,0,U,43823,999,2055,0,-.347E-5,0
GSAT-11,2018-100B,2024-07-08T03:33:42.860736,1.00271639,.0007458,0.0586,255.9106,196.7115,321.3607,0,U,43824,999,2052,0,-.79E-6,0
GSAT-7A,2018-105A,2024-07-07T18:25:42.781728,1.00273760,.0001777,0.0743,102.7620,357.5017,165.1568,0,U,43864,999,2033,0,.23E-6,0
COSMOS 2533,2018-107A,2024-07-08T03:33:42.860736,1.00275273,.0001116,0.0398,110.4682,350.9768,308.5506,0,U,43867,999,2031,0,-.42E-6,0
TJS-3,2018-110A,2024-07-07T14:40:27.295392,1.00270253,.000204,0.7065,88.7503,84.9022,145.4656,0,U,43874,999,2030,0,-.3E-7,0
ZHONGXING-2D,2019-001A,2024-07-07T14:41:09.906144,1.00271265,.0002379,0.0190,252.3980,18.5072,5.4511,0,U,43920,999,4696,0,-.341E-5,0
HELLAS-SAT 4 & SGS-1,2019-007A,2024-07-07T18:32:12.189984,1.00271420,.0005989,0.0689,122.5948,22.1245,98.5409,0,U,44034,999,2023,0,.149E-5,0
GSAT-31,2019-007B,2024-07-07T13:25:33.998592,1.00271303,.0001085,0.0782,265.4295,349.9934,279.8436,0,U,44035,999,1984,0,.122E-5,0
NUSANTARA SATU,2019-009A,2024-07-07T13:57:45.874944,1.00272279,.0004733,0.0342,114.2223,12.1210,155.1107,0,U,44048,999,1964,0,-.238E-5,0
ZHONGXING-6C,2019-012A,2024-07-07T21:29:40.467264,1.00273603,.0005205,0.0494,100.2027,304.6589,334.2986,0,U,44067,999,1962,0,-.338E-5,0
WGS 10 (USA 291),2019-014A,2024-07-08T03:13:24.932640,1.00273621,.000023,0.0174,47.3962,198.5635,149.2757,0,U,44071,999,1950,0,.43E-6,0
TIANLIAN 2-01,2019-017A,2024-07-08T03:33:42.860736,1.00271621,.00022,0.0649,253.4277,177.2049,346.4531,0,U,44076,999,1950,0,-.11E-5,0
ARABSAT-6A,2019-021A,2024-07-07T08:11:05.616672,1.00277179,.0002778,0.0448,359.4664,168.6735,270.9102,0,U,44186,999,1904,0,.15E-5,0
BEIDOU-3 IGSO-1,2019-023A,2024-07-07T09:35:12.418656,1.00295564,.0022374,57.6722,45.0097,206.0827,296.0209,0,U,44204,999,9,0,-.215E-5,0
BEIDOU-2 G8,2019-027A,2024-07-07T19:02:19.747104,1.00274245,.0001571,1.5262,73.8633,195.4899,86.9885,0,U,44231,999,1896,0,-.251E-5,0
YAMAL 601,2019-031A,2024-07-08T03:10:09.444864,1.00271422,.00023,0.0158,67.3478,34.4326,281.3127,0,U,44307,999,1880,0,.117E-5,0
AT&T T-16,2019-034A,2024-07-08T04:10:19.646400,1.00268648,.0000824,0.0146,326.9465,324.7637,316.6212,0,U,44333,999,1852,0,-.118E-5,0
EUTELSAT 7C,2019-034B,2024-07-02T13:00:43.589088,1.00270770,.0003092,0.0775,187.7983,258.6230,36.8118,0,U,44334,999,1895,0,.5E-6,0
BEIDOU-3 IGSO-2,2019-035A,2024-07-07T14:49:34.483008,1.00291282,.0035316,55.1825,165.0890,205.3628,255.5100,0,U,44337,999,1858,0,-.115E-5,0
COSMOS 2539,2019-048A,2024-07-07T18:24:26.027424,1.00273660,.0000938,0.0362,101.9869,12.8999,99.4026,0,U,44457,999,1810,0,.78E-6,0
EDRS-C,2019-049A,2024-07-07T02:52:57.112608,1.00273042,.0000641,0.0668,241.9394,213.7535,264.2959,0,U,44475,999,1809,0,.151E-5,0
INTELSAT 39 (IS-39),2019-049B,2024-07-07T18:25:42.781728,1.00269446,.000105,0.0211,34.6680,308.3988,281.5214,0,U,44476,999,1801,0,.3E-6,0
AMOS-17,2019-050A,2024-07-07T18:25:48.732960,1.00270770,.0001382,0.0140,52.6498,64.2069,102.7858,0,U,44479,999,1806,0,.106E-5,0
AEHF-5 (USA 292),2019-051A,2024-07-07T20:19:34.499712,1.00277300,.0044008,2.6701,308.1294,2.2500,335.4355,0,U,44481,999,1814,0,.82E-6,0
EUTELSAT 5 WEST B,2019-067A,2024-07-08T02:54:44.638272,1.00272019,.0002827,0.0671,336.2295,131.3468,217.6577,0,U,44624,999,1733,0,-.45E-6,0
MEV-1,2019-067B,2024-07-06T16:27:27.872064,1.00271614,.0000556,0.0162,340.3349,108.6165,55.5608,0,U,44625,999,1586,0,-.206E-5,0
